CTC2_L_00237001-01
1 83076U 22762FN  26037.47792824  .00000000  00000+0  00000-0 0  9993
2 83076  50.0000   0.0000 0000000   0.0000   0.0000 14.15679836    12
CTC2_L_00237001-02
1 83077U 24014SM  26037.47792824  .00000000  00000+0  00000-0 0  9996
2 83077  50.0000   0.0000 0000000   0.0000  90.0000 14.15679836    12
CTC2_L_00237001-03
1 83078U 24392WQ  26037.47792824  .00000000  00000+0  00000-0 0  9996
2 83078  50.0000   0.0000 0000000   0.0000 180.0000 14.15679836    13
CTC2_L_00237001-04
1 83079U 22348BK  26037.47792824  .00000000  00000+0  00000-0 0  9996
2 83079  50.0000   0.0000 0000000   0.0000 270.0000 14.15679836    14
CTC2_L_00237002-01
1 83080U 26573JH  26037.47792824  .00000000  00000+0  00000-0 0  9992
2 83080  50.0000  12.0000 0000000   0.0000  12.0000 14.15679836    13
CTC2_L_00237002-02
1 83081U 23458E   26037.47792824  .00000000  00000+0  00000-0 0  9992
2 83081  50.0000  12.0000 0000000   0.0000 102.0000 14.15679836    14
CTC2_L_00237002-03
1 83082U 23240YX  26037.47792824  .00000000  00000+0  00000-0 0  9992
2 83082  50.0000  12.0000 0000000   0.0000 192.0000 14.15679836    14
CTC2_L_00237002-04
1 83083U 25060TE  26037.47792824  .00000000  00000+0  00000-0 0  9995
2 83083  50.0000  12.0000 0000000   0.0000 282.0000 14.15679836    15
CTC2_L_00237003-01
1 83084U 25578N   26037.47792824  .00000000  00000+0  00000-0 0  9990
2 83084  50.0000  24.0000 0000000   0.0000  24.0000 14.15679836    13
CTC2_L_00237003-02
1 83085U 22426TJ  26037.47792824  .00000000  00000+0  00000-0 0  9990
2 83085  50.0000  24.0000 0000000   0.0000 114.0000 14.15679836    14
CTC2_L_00237003-03
1 83086U 24472TL  26037.47792824  .00000000  00000+0  00000-0 0  9994
2 83086  50.0000  24.0000 0000000   0.0000 204.0000 14.15679836    15
CTC2_L_00237003-04
1 83087U 22819FA  26037.47792824  .00000000  00000+0  00000-0 0  9998
2 83087  50.0000  24.0000 0000000   0.0000 294.0000 14.15679836    15
CTC2_L_00237004-01
1 83088U 23136AG  26037.47792824  .00000000  00000+0  00000-0 0  9992
2 83088  50.0000  36.0000 0000000   0.0000  36.0000 14.15679836    13
CTC2_L_00237004-02
1 83089U 24594EP  26037.47792824  .00000000  00000+0  00000-0 0  9992
2 83089  50.0000  36.0000 0000000   0.0000 126.0000 14.15679836    14
CTC2_L_00237004-03
1 83090U 23721MK  26037.47792824  .00000000  00000+0  00000-0 0  9995
2 83090  50.0000  36.0000 0000000   0.0000 216.0000 14.15679836    16
CTC2_L_00237004-04
1 83091U 25592LJ  26037.47792824  .00000000  00000+0  00000-0 0  9994
2 83091  50.0000  36.0000 0000000   0.0000 306.0000 14.15679836    17
CTC2_L_00237005-01
1 83092U 26032UY  26037.47792824  .00000000  00000+0  00000-0 0  9995
2 83092  50.0000  48.0000 0000000   0.0000  48.0000 14.15679836    14
CTC2_L_00237005-02
1 83093U 25774YJ  26037.47792824  .00000000  00000+0  00000-0 0  9998
2 83093  50.0000  48.0000 0000000   0.0000 138.0000 14.15679836    15
CTC2_L_00237005-03
1 83094U 26756ZW  26037.47792824  .00000000  00000+0  00000-0 0  9990
2 83094  50.0000  48.0000 0000000   0.0000 228.0000 14.15679836    16
CTC2_L_00237005-04
1 83095U 23007CD  26037.47792824  .00000000  00000+0  00000-0 0  9997
2 83095  50.0000  48.0000 0000000   0.0000 318.0000 14.15679836    17
CTC2_L_00237006-01
1 83096U 22611XE  26037.47792824  .00000000  00000+0  00000-0 0  9998
2 83096  50.0000  60.0000 0000000   0.0000  60.0000 14.15679836    16
CTC2_L_00237006-02
1 83097U 24190UO  26037.47792824  .00000000  00000+0  00000-0 0  9993
2 83097  50.0000  60.0000 0000000   0.0000 150.0000 14.15679836    17
CTC2_L_00237006-03
1 83098U 26224GV  26037.47792824  .00000000  00000+0  00000-0 0  9994
2 83098  50.0000  60.0000 0000000   0.0000 240.0000 14.15679836    18
CTC2_L_00237006-04
1 83099U 26964YR  26037.47792824  .00000000  00000+0  00000-0 0  9996
2 83099  50.0000  60.0000 0000000   0.0000 330.0000 14.15679836    19
CTC2_L_00237007-01
1 83100U 26585WN  26037.47792824  .00000000  00000+0  00000-0 0  9998
2 83100  50.0000  72.0000 0000000   0.0000  72.0000 14.15679836    18
CTC2_L_00237007-02
1 83101U 24589ER  26037.47792824  .00000000  00000+0  00000-0 0  9991
2 83101  50.0000  72.0000 0000000   0.0000 162.0000 14.15679836    19
CTC2_L_00237007-03
1 83102U 23292TI  26037.47792824  .00000000  00000+0  00000-0 0  9992
2 83102  50.0000  72.0000 0000000   0.0000 252.0000 14.15679836    10
CTC2_L_00237007-04
1 83103U 24838MK  26037.47792824  .00000000  00000+0  00000-0 0  9990
2 83103  50.0000  72.0000 0000000   0.0000 342.0000 14.15679836    11
CTC2_L_00237008-01
1 83104U 26412ED  26037.47792824  .00000000  00000+0  00000-0 0  9991
2 83104  50.0000  84.0000 0000000   0.0000  84.0000 14.15679836    18
CTC2_L_00237008-02
1 83105U 23021TV  26037.47792824  .00000000  00000+0  00000-0 0  9995
2 83105  50.0000  84.0000 0000000   0.0000 174.0000 14.15679836    19
CTC2_L_00237008-03
1 83106U 25895YV  26037.47792824  .00000000  00000+0  00000-0 0  9997
2 83106  50.0000  84.0000 0000000   0.0000 264.0000 14.15679836    10
CTC2_L_00237008-04
1 83107U 26913LX  26037.47792824  .00000000  00000+0  00000-0 0  9990
2 83107  50.0000  84.0000 0000000   0.0000 354.0000 14.15679836    11
CTC2_L_00237009-01
1 83108U 25048MJ  26037.47792824  .00000000  00000+0  00000-0 0  9999
2 83108  50.0000  96.0000 0000000   0.0000  96.0000 14.15679836    18
CTC2_L_00237009-02
1 83109U 22783LC  26037.47792824  .00000000  00000+0  00000-0 0  9993
2 83109  50.0000  96.0000 0000000   0.0000 186.0000 14.15679836    19
CTC2_L_00237009-03
1 83110U 23016DV  26037.47792824  .00000000  00000+0  00000-0 0  9995
2 83110  50.0000  96.0000 0000000   0.0000 276.0000 14.15679836    11
CTC2_L_00237009-04
1 83111U 24047OJ  26037.47792824  .00000000  00000+0  00000-0 0  9991
2 83111  50.0000  96.0000 0000000   0.0000   6.0000 14.15679836    13
CTC2_L_00237010-01
1 83112U 23913HF  26037.47792824  .00000000  00000+0  00000-0 0  9993
2 83112  50.0000 108.0000 0000000   0.0000 108.0000 14.15679836    11
CTC2_L_00237010-02
1 83113U 26807TD  26037.47792824  .00000000  00000+0  00000-0 0  9999
2 83113  50.0000 108.0000 0000000   0.0000 198.0000 14.15679836    11
CTC2_L_00237010-03
1 83114U 22467XX  26037.47792824  .00000000  00000+0  00000-0 0  9998
2 83114  50.0000 108.0000 0000000   0.0000 288.0000 14.15679836    12
CTC2_L_00237010-04
1 83115U 24074AP  26037.47792824  .00000000  00000+0  00000-0 0  9995
2 83115  50.0000 108.0000 0000000   0.0000  18.0000 14.15679836    14
CTC2_L_00237011-01
1 83116U 25948FK  26037.47792824  .00000000  00000+0  00000-0 0  9997
2 83116  50.0000 120.0000 0000000   0.0000 120.0000 14.15679836    13
CTC2_L_00237011-02
1 83117U 26635UW  26037.47792824  .00000000  00000+0  00000-0 0  9992
2 83117  50.0000 120.0000 0000000   0.0000 210.0000 14.15679836    14
CTC2_L_00237011-03
1 83118U 25296YQ  26037.47792824  .00000000  00000+0  00000-0 0  9995
2 83118  50.0000 120.0000 0000000   0.0000 300.0000 14.15679836    15
CTC2_L_00237011-04
1 83119U 23322FK  26037.47792824  .00000000  00000+0  00000-0 0  9994
2 83119  50.0000 120.0000 0000000   0.0000  30.0000 14.15679836    16
CTC2_L_00237012-01
1 83120U 22636OV  26037.47792824  .00000000  00000+0  00000-0 0  9993
2 83120  50.0000 132.0000 0000000   0.0000 132.0000 14.15679836    14
CTC2_L_00237012-02
1 83121U 25961FL  26037.47792824  .00000000  00000+0  00000-0 0  9998
2 83121  50.0000 132.0000 0000000   0.0000 222.0000 14.15679836    15
CTC2_L_00237012-03
1 83122U 23517BC  26037.47792824  .00000000  00000+0  00000-0 0  9994
2 83122  50.0000 132.0000 0000000   0.0000 312.0000 14.15679836    16
CTC2_L_00237012-04
1 83123U 22858XQ  26037.47792824  .00000000  00000+0  00000-0 0  9992
2 83123  50.0000 132.0000 0000000   0.0000  42.0000 14.15679836    17
CTC2_L_00237013-01
1 83124U 24804NK  26037.47792824  .00000000  00000+0  00000-0 0  9996
2 83124  50.0000 144.0000 0000000   0.0000 144.0000 14.15679836    14
CTC2_L_00237013-02
1 83125U 23386FS  26037.47792824  .00000000  00000+0  00000-0 0  9991
2 83125  50.0000 144.0000 0000000   0.0000 234.0000 14.15679836    15
CTC2_L_00237013-03
1 83126U 25456VC  26037.47792824  .00000000  00000+0  00000-0 0  9992
2 83126  50.0000 144.0000 0000000   0.0000 324.0000 14.15679836    16
CTC2_L_00237013-04
1 83127U 22052W   26037.47792824  .00000000  00000+0  00000-0 0  9992
2 83127  50.0000 144.0000 0000000   0.0000  54.0000 14.15679836    17
CTC2_L_00237014-01
1 83128U 24290XP  26037.47792824  .00000000  00000+0  00000-0 0  9999
2 83128  50.0000 156.0000 0000000   0.0000 156.0000 14.15679836    14
CTC2_L_00237014-02
1 83129U 22988BV  26037.47792824  .00000000  00000+0  00000-0 0  9992
2 83129  50.0000 156.0000 0000000   0.0000 246.0000 14.15679836    15
CTC2_L_00237014-03
1 83130U 25214VP  26037.47792824  .00000000  00000+0  00000-0 0  9999
2 83130  50.0000 156.0000 0000000   0.0000 336.0000 14.15679836    17
CTC2_L_00237014-04
1 83131U 25224NZ  26037.47792824  .00000000  00000+0  00000-0 0  9991
2 83131  50.0000 156.0000 0000000   0.0000  66.0000 14.15679836    18
CTC2_L_00237015-01
1 83132U 22423QI  26037.47792824  .00000000  00000+0  00000-0 0  9990
2 83132  50.0000 168.0000 0000000   0.0000 168.0000 14.15679836    15
CTC2_L_00237015-02
1 83133U 24006RC  26037.47792824  .00000000  00000+0  00000-0 0  9990
2 83133  50.0000 168.0000 0000000   0.0000 258.0000 14.15679836    16
CTC2_L_00237015-03
1 83134U 25920AI  26037.47792824  .00000000  00000+0  00000-0 0  9997
2 83134  50.0000 168.0000 0000000   0.0000 348.0000 14.15679836    17
CTC2_L_00237015-04
1 83135U 24451GU  26037.47792824  .00000000  00000+0  00000-0 0  9996
2 83135  50.0000 168.0000 0000000   0.0000  78.0000 14.15679836    18
CTC2_L_00237016-01
1 83136U 23125TT  26037.47792824  .00000000  00000+0  00000-0 0  9994
2 83136  50.0000 180.0000 0000000   0.0000 180.0000 14.15679836    17
CTC2_L_00237016-02
1 83137U 23741YS  26037.47792824  .00000000  00000+0  00000-0 0  9999
2 83137  50.0000 180.0000 0000000   0.0000 270.0000 14.15679836    18
